{
  "type": "FeatureCollection",
  "features": [
    {
      "type": "Feature",
      "geometry": {
        "type": "Polygon",
        "coordinates": [
          [
            [
              31.0,
              59.94
            ],
            [
              31.0,
              59.96
            ],
            [
              31.02,
              59.96
            ],
            [
              31.02,
              59.94
            ],
            [
              31.0,
              59.94
            ]
          ]
        ]
      },
      "properties": {
        "Индекс_зоны": "Ж-1",
        "zone_name": "Зона застройки среднеэтажными жилыми домами"
      }
    },
    {
      "type": "Feature",
      "geometry": {
        "type": "Polygon",
        "coordinates": [
          [
            [
              31.02,
              59.94
            ],
            [
              31.02,
              59.96
            ],
            [
              31.04,
              59.96
            ],
            [
              31.04,
              59.94
            ],
            [
              31.02,
              59.94
            ]
          ]
        ]
      },
      "properties": {
        "Индекс_зоны": "П-1",
        "zone_name": "Зона производственных объектов"
      }
    },
    {
      "type": "Feature",
      "geometry": {
        "type": "Polygon",
        "coordinates": [
          [
            [
              31.04,
              59.94
            ],
            [
              31.04,
              59.96
            ],
            [
              31.06,
              59.96
            ],
            [
              31.06,
              59.94
            ],
            [
              31.04,
              59.94
            ]
          ]
        ]
      },
      "properties": {
        "Индекс_зоны": "Р-1",
        "zone_name": "Зона рекреационного назначения"
      }
    }
  ]
}